TEVEL2-9                
1 63237U 25052AD  26068.70229538  .00018694  00000+0  67240-3 0  9992
2 63237  97.4057 324.3929 0007990 124.2475 235.9522 15.28633834 54816
STARLINK-34298          
1 64269U 25120P   26068.52441147  .00027856  00000+0  94933-3 0  9995
2 64269  53.1590 117.2622 0001302  76.1917 283.9228 15.30192964 43797
